PROBA-1                 
1 26958U 01049B   23049.44624682  .00004462  00000+0  37080-3 0  9994
2 26958  97.8574  14.8743 0068225 242.3656 117.0628 14.97456886161269
BIRD 2                  
1 26959U 01049C   23049.29674773  .00040051  00000+0  59444-3 0  9996
2 26959  97.7636 164.2582 0005152 205.4489 154.6511 15.55098943184986
CUTE-1 (CO-55)          
1 27844U 03031E   23048.90383875  .00000750  00000+0  35445-3 0  9997
2 27844  98.6805  57.9033 0010915 109.4680 250.7678 14.22633885 18774
CUBESAT XI-IV (CO-57)   
1 27848U 03031J   23049.01527959  .00000638  00000+0  30755-3 0  9991
2 27848  98.6844  58.4708 0010682 122.5163 237.7048 14.22165244 18617
GENESIS 1               
1 29252U 06029A   23049.02355670  .00011540  00000+0  47249-3 0  9992
2 29252  64.5233 343.1486 0040038 226.1492 133.6323 15.23939749916419
GENESIS 2               
1 31789U 07028A   23049.01930300  .00012516  00000+0  51636-3 0  9997
2 31789  64.4956  27.0017 0059569 278.6353  80.8026 15.22734974863307
APRIZESAT 4             
1 35684U 09041D   23048.82180991  .00001695  00000+0  22784-3 0  9991
2 35684  98.2976  75.7464 0045168 284.8214  74.7995 14.80036488731357
APRIZESAT 3             
1 35686U 09041F   23049.52080002  .00002553  00000+0  26723-3 0  9994
2 35686  98.0968 146.6354 0072275 101.7427 259.1910 14.88632162735254
PROBA-2                 
1 36037U 09059B   23049.49472726  .00000686  00000+0  17516-3 0  9993
2 36037  98.2233 236.4963 0014498  71.9271 288.3504 14.53419928705080
APRIZESAT 5             
1 37792U 11044E   23049.26059448  .00002015  00000+0  29215-3 0  9993
2 37792  98.2940 296.4849 0056157 301.2403  58.3311 14.76190945619396
APRIZESAT 6             
1 37793U 11044F   23048.88047801  .00001578  00000+0  24949-3 0  9993
2 37793  98.3720 273.9020 0046434 359.4849  11.3007 14.73133027617991
PROBA-V                 
1 39159U 13021A   23049.45588742  .00000126  00000+0  74007-4 0  9995
2 39159  98.3328  77.6000 0005391  91.9649 268.2147 14.23080807508318
STPSAT-3                
1 39380U 13064A   23049.48347952  .00398606  00000+0  17314-2 0  9996
2 39380  40.4965 332.5999 0017139 259.7486 100.1412 15.82709573519253
APRIZESAT 7             
1 39416U 13066A   23049.14406908  .00002670  00000+0  31448-3 0  9996
2 39416  97.6040  22.4855 0038484 268.5041  91.1766 14.85083990500529
APRIZESAT 8             
1 39425U 13066K   23048.84187213  .00002729  00000+0  34186-3 0  9994
2 39425  97.6619  14.1840 0049801 318.3657  41.3769 14.82160563499307
BUGSAT-1 (TITA)         
1 40014U 14033E   23049.26806748  .00008985  00000+0  75539-3 0  9990
2 40014  98.1412  62.9679 0028596 307.0690  52.7911 14.98214687472929
SAUDISAT 4              
1 40016U 14033G   23049.03119943  .00001379  00000+0  20385-3 0  9990
2 40016  97.6367 235.3564 0049072  65.1811 295.4492 14.75895974466632
APRIZESAT 9             
1 40018U 14033J   23049.33712657  .00001698  00000+0  27604-3 0  9991
2 40018  97.7351 212.0998 0071378 143.2758 217.3371 14.70627635464913
APRIZESAT 10            
1 40019U 14033K   23049.37906855  .00001667  00000+0  28677-3 0  9998
2 40019  97.7947 202.3971 0083215 190.8503 169.0910 14.67630518464043
TDS 1                   
1 40076U 14037H   23049.45149720  .00005992  00000+0  67205-3 0  9999
2 40076  98.3609 300.2945 0007054   9.8545 350.2806 14.87195803466325
TIANTUO 2               
1 40144U 14053B   23049.33878317  .00018010  00000+0  42669-3 0  9993
2 40144  97.1711 129.6239 0010610  36.2628  28.5949 15.41754486472924
TECHNOSAT               
1 42829U 17042E   23049.51629398  .00004410  00000+0  43086-3 0  9992
2 42829  97.3968 254.0430 0012123 263.6560  96.3280 14.92795707304785
FLYING LAPTOP           
1 42831U 17042G   23049.04802884  .00004187  00000+0  41205-3 0  9998
2 42831  97.3990 253.9432 0012316 265.2754  94.7071 14.92532645304713
HAWK-A                  
1 43765U 18099H   23048.89847046  .00004718  00000+0  40048-3 0  9993
2 43765  97.5881 115.4443 0014394 164.0650 196.1029 14.98299770229872
HAWK-B                  
1 43794U 18099AN  23049.43311670  .00004154  00000+0  35307-3 0  9991
2 43794  97.5879 115.9640 0014525 162.8281 197.3436 14.98306701229943
HAWK-C                  
1 43799U 18099AT  23048.89865709  .00004680  00000+0  39721-3 0  9990
2 43799  97.5879 115.3475 0014382 164.0923 196.0754 14.98302005230614
SALSAT                  
1 46495U 20068K   23048.80779006  .00006982  00000+0  47932-3 0  9990
2 46495  97.7561 355.7727 0016526 159.8285 200.3598 15.06193415131095
